{
    "satellites": [
        {
            "name": "starlink328",
            "title": "Starlink-328 (G6-86)",
            "tle": [
                "1 66814C 25278Z   25351.08868056 -.01307100  00000+0 -86761-2 0  3511",
                "2 66814  42.9991 225.3780 0001977 280.4064 104.6998 15.75816996    11"
            ],
            "stdMag": 5,
            "noradId": "66814",
            "tleUrl": "http://celestrak.org/NORAD/elements/supplemental/sup-gp.php?FILE=starlink&FORMAT=tle",
            "launchDate": "2025-12-01T07:44:10.000Z",
            "active": true,
            "batch": [
                {
                    "noradId": "66814",
                    "tle": [
                        "1 66814C 25278Z   25351.08868056 -.01307100  00000+0 -86761-2 0  3511",
                        "2 66814  42.9991 225.3780 0001977 280.4064 104.6998 15.75816996    11"
                    ]
                },
                {
                    "noradId": "66815",
                    "tle": [
                        "1 66815C 25278AA  25351.09354167 -.01321600  00000+0 -87766-2 0  3513",
                        "2 66815  42.9991 225.3530 0001600 281.7221 129.0612 15.75821290    14"
                    ]
                },
                {
                    "noradId": "66819",
                    "tle": [
                        "1 66819C 25278AE  25351.09006944 -.01294100  00000+0 -85955-2 0  3516",
                        "2 66819  42.9991 225.3792 0001954 274.2091 114.9878 15.75789442    11"
                    ]
                },
                {
                    "noradId": "66818",
                    "tle": [
                        "1 66818C 25278AD  25351.09493056 -.01338100  00000+0 -88875-2 0  3512",
                        "2 66818  42.9991 225.3600 0001383 284.2502 128.6637 15.75834732    10"
                    ]
                },
                {
                    "noradId": "66817",
                    "tle": [
                        "1 66817C 25278AC  25351.08798611 -.01345800  00000+0 -89214-2 0  3518",
                        "2 66817  42.9990 225.3971 0002388 282.2329  93.0832 15.75884136    15"
                    ]
                },
                {
                    "noradId": "66816",
                    "tle": [
                        "1 66816C 25278AB  25351.09354167 -.01334100  00000+0 -88597-2 0  3516",
                        "2 66816  42.9991 225.3731 0001613 281.4959 121.6127 15.75834516    11"
                    ]
                },
                {
                    "noradId": "66813",
                    "tle": [
                        "1 66813C 25278Y   25351.09145833 -.01322600  00000+0 -87811-2 0  3511",
                        "2 66813  42.9991 225.3905 0001882 282.4978 106.8713 15.75826909    14"
                    ]
                },
                {
                    "noradId": "66812",
                    "tle": [
                        "1 66812C 25278X   25351.08868056 -.01313700  00000+0 -87200-2 0  3511",
                        "2 66812  42.9990 225.4127 0002107 278.6289  93.0566 15.75823587    14"
                    ]
                },
                {
                    "noradId": "66811",
                    "tle": [
                        "1 66811C 25278W   25351.08868056 -.01308700  00000+0 -86864-2 0  3519",
                        "2 66811  42.9991 225.4225 0001847 277.5792  90.2704 15.75819760    11"
                    ]
                },
                {
                    "noradId": "66810",
                    "tle": [
                        "1 66810C 25278V   25351.09284722 -.01319700  00000+0 -87632-2 0  3517",
                        "2 66810  42.9991 225.4023 0001763 277.9687 111.6180 15.75821265    19"
                    ]
                },
                {
                    "noradId": "66809",
                    "tle": [
                        "1 66809C 25278U   25351.09701389 -.01346200  00000+0 -89432-2 0  3513",
                        "2 66809  42.9991 225.3664 0001508 284.3917 132.6781 15.75838586    16"
                    ]
                },
                {
                    "noradId": "66808",
                    "tle": [
                        "1 66808C 25278T   25351.09423611 -.01384900  00000+0 -92004-2 0  3519",
                        "2 66808  42.9992 225.3985 0001656 276.9507 118.6071 15.75877260    16"
                    ]
                },
                {
                    "noradId": "66807",
                    "tle": [
                        "1 66807C 25278S   25351.09354167 -.01359600  00000+0 -90274-2 0  3513",
                        "2 66807  42.9992 225.4076 0001663 277.6499 112.0226 15.75863361    10"
                    ]
                },
                {
                    "noradId": "66806",
                    "tle": [
                        "1 66806C 25278R   25351.08729167 -.01308600  00000+0 -86838-2 0  3512",
                        "2 66806  42.9990 225.4596 0002060 275.4887  72.9707 15.75824096    13"
                    ]
                },
                {
                    "noradId": "66805",
                    "tle": [
                        "1 66805C 25278Q   25351.08798611 -.01311000  00000+0 -87005-2 0  3516",
                        "2 66805  42.9990 225.4503 0001750 275.0502  79.2678 15.75825120    11"
                    ]
                },
                {
                    "noradId": "66801",
                    "tle": [
                        "1 66801C 25278L   25351.09215278 -.01323300  00000+0 -87779-2 0  3510",
                        "2 66801  42.9991 225.4199 0002299 272.9345 106.8908 15.75846816    17"
                    ]
                },
                {
                    "noradId": "66804",
                    "tle": [
                        "1 66804C 25278P   25351.08868056 -.01319200  00000+0 -87521-2 0  3519",
                        "2 66804  42.9992 225.4566 0002221 269.6472  84.7494 15.75840163    11"
                    ]
                },
                {
                    "noradId": "66803",
                    "tle": [
                        "1 66803C 25278N   25351.09215278 -.01318400  00000+0 -87542-2 0  3515",
                        "2 66803  42.9991 225.4399 0001726 276.6028  95.6245 15.75821138    13"
                    ]
                },
                {
                    "noradId": "66802",
                    "tle": [
                        "1 66802C 25278M   25351.09423611 -.01327200  00000+0 -88147-2 0  3516",
                        "2 66802  42.9991 225.4369 0001767 285.8009  94.4191 15.75824907    19"
                    ]
                },
                {
                    "noradId": "66800",
                    "tle": [
                        "1 66800C 25278K   25351.09215278 -.01324500  00000+0 -87945-2 0  3517",
                        "2 66800  42.9992 225.4451 0001862 278.5749  91.7340 15.75826863    15"
                    ]
                },
                {
                    "noradId": "66799",
                    "tle": [
                        "1 66799C 25278J   25351.10534722 -.01369600  00000+0 -91105-2 0  3517",
                        "2 66799  42.9992 225.3750 0001214 283.3433 158.0435 15.75831901    19"
                    ]
                },
                {
                    "noradId": "66798",
                    "tle": [
                        "1 66798C 25278H   25351.08451389 -.01287700  00000+0 -85441-2 0  3516",
                        "2 66798  42.9991 225.5057 0002242 265.9700  55.2312 15.75806177    13"
                    ]
                },
                {
                    "noradId": "66797",
                    "tle": [
                        "1 66797C 25278G   25351.09354167 -.01324600  00000+0 -87968-2 0  3519",
                        "2 66797  42.9992 225.4562 0001932 284.1239  86.4033 15.75823231    14"
                    ]
                },
                {
                    "noradId": "66796",
                    "tle": [
                        "1 66796C 25278F   25351.09631944  .00026755  00000+0  13360-3 0  3512",
                        "2 66796  42.9932 224.2431 0001678 272.0493 225.5845 15.80835972    12"
                    ]
                },
                {
                    "noradId": "66795",
                    "tle": [
                        "1 66795C 25278E   25351.09493056 -.01329700  00000+0 -88317-2 0  3513",
                        "2 66795  42.9992 225.4574 0001773 281.7199  92.8572 15.75825272    12"
                    ]
                },
                {
                    "noradId": "66794",
                    "tle": [
                        "1 66794C 25278D   25351.09145833 -.01329200  00000+0 -88227-2 0  3514",
                        "2 66794  42.9991 225.4875 0001851 279.2659  71.7415 15.75839194    14"
                    ]
                },
                {
                    "noradId": "66793",
                    "tle": [
                        "1 66793C 25278C   25351.09215278 -.01326700  00000+0 -88083-2 0  3516",
                        "2 66793  42.9991 225.4792 0002234 277.0559  79.8260 15.75830138    18"
                    ]
                },
                {
                    "noradId": "66792",
                    "tle": [
                        "1 66792C 25278B   25351.08729167 -.01365200  00000+0 -90545-2 0  3515",
                        "2 66792  42.9991 225.5183 0001986 273.9687  51.4216 15.75894180    16"
                    ]
                },
                {
                    "noradId": "66791",
                    "tle": [
                        "1 66791C 25278A   25351.09562500 -.01390300  00000+0 -92300-2 0  3511",
                        "2 66791  42.9991 225.4722 0001532 277.0705  93.7208 15.75897440    18"
                    ]
                }
            ]
        }
    ],
    "config": {}
}